COSMOS 1892             
1 18421U 87088A   20360.79462368  .00001146  00000-0  55546-4 0  9994
2 18421  82.5009  84.1566 0016341 119.1285 241.1587 15.17394996813569
SL-14 R/B               
1 18749U 88001B   20360.88768101  .00000116  00000-0  11225-4 0  9999
2 18749  82.5132 178.2438 0019519  31.4826  84.1060 14.83239744760247
COSMOS 1933             
1 18958U 88020A   20360.90076449  .00000355  00000-0  23732-4 0  9993
2 18958  82.5295 300.7023 0010333 213.4740 146.5834 15.03825426763856
SL-3 R/B                
1 19046U 88032B   20360.82971795  .00000103  00000-0  12030-4 0  9994
2 19046  97.3946  13.3130 0034548 274.8469  84.8812 15.02830259765706
SL-16 R/B               
1 19120U 88039B   20361.04061332  .00000039  00000-0  41389-4 0  9993
2 19120  71.0148 123.6920 0021577   7.4062 352.7377 14.19216951689107
COSMOS 1953             
1 19210U 88050A   20361.13042442  .00000142  00000-0  76749-5 0  9991
2 19210  82.5168 223.7516 0013474 178.0770 182.0511 15.06126750771646
SL-8 R/B                
1 19257U 88053B   20361.10014237  .00000098  00000-0  41548-4 0  9991
2 19257  74.0490   8.5942 0021693 298.4088 116.3587 14.37496622703823
COSMOS 1975             
1 19573U 88093A   20360.91260187  .00001209  00000-0  83078-4 0  9990
2 19573  82.5189 178.7194 0012933 227.2980 132.7159 15.05022452732304
SL-14 R/B               
1 19574U 88093B   20360.82243584  .00000107  00000-0  10089-4 0  9991
2 19574  82.5317  21.0985 0021384 186.8989 345.8344 14.83350894719234
SL-16 R/B               
1 19650U 88102B   20360.88329219 -.00000251  00000-0 -10333-3 0  9996
2 19650  70.9979 187.3716 0013590  13.6595 346.4893 14.15796685657977
INTERCOSMOS 24          
1 20261U 89080A   20360.81710180  .00000171  00000-0  46282-4 0  9998
2 20261  82.6045 256.4337 1203054   6.3002 355.1773 12.56161289428022
SL-14 R/B               
1 20262U 89080C   20361.11532026  .00000015  00000-0  32983-7 0  9997
2 20262  82.5938 311.1456 1236506 200.0723 154.7369 12.48953419422488
DELTA 2 R/B(1)          
1 20303U 89085B   20360.88307881  .00004539  00000-0  14377-3 0  9998
2 20303  35.6364 247.2791 0091608  79.2096 281.8928 15.28279787697899
DELTA 1 R/B             
1 20323U 89089B   20360.86237144  .00000035  00000-0  18406-4 0  9991
2 20323  97.1150 116.3749 0071344 350.0880   9.8905 14.48376031620577
ARIANE 40 R/B           
1 20443U 90005H   20360.77825874  .00000008  00000-0  17057-4 0  9998
2 20443  98.5537  62.0541 0011352 129.9995 230.2190 14.38110572619618
DELTA 2 R/B(1)          
1 20453U 90008B   20360.88029962  .00002738  00000-0  15396-3 0  9993
2 20453  35.6221 207.2386 0277882 103.3542 259.8308 14.86055329639685
COSMOS 2058             
1 20465U 90010A   20360.81706906  .00000423  00000-0  33396-4 0  9992
2 20465  82.4900  89.2039 0013852 276.4074  83.5571 14.98110656656975
SL-14 R/B               
1 20466U 90010B   20360.76594957  .00000089  00000-0  83543-5 0  9996
2 20466  82.5035 247.7244 0021983  70.4700 289.8885 14.81405034647054
SL-14 R/B               
1 20511U 90018B   20360.93409424  .00000116  00000-0  12184-4 0  9991
2 20511  82.5222 194.8115 0016746 205.5488 268.6357 14.80060523641431
HST                     
1 20580U 90037B   20361.11762597  .00000654  00000-0  28715-4 0  9996
2 20580  28.4692 131.8825 0002737   0.2931 163.1856 15.09519754485047
SL-16 R/B               
1 20625U 90046B   20360.91595979 -.00000289  00000-0 -12504-3 0  9995
2 20625  70.9997 326.3229 0016452 305.3061  54.6523 14.14663458579694
COSMOS 2084             
1 20663U 90055A   20360.92040949  .00000102  00000-0  27901-4 0  9990
2 20663  62.7941 248.8793 0043673 334.6568  25.2383 14.92168506651925
SL-6 R/B(2)             
1 20666U 90055D   20360.87390408  .00000042  00000-0  22113-4 0  9998
2 20666  62.7840 164.9917 0073945  14.0187 346.2936 14.92413900653869
SL-8 R/B                
1 20775U 90078B   20360.96597397  .00002345  00000-0  11411-3 0  9996
2 20775  82.9280  68.6355 0569441 321.2310  34.9271 14.35114574533198
SL-8 R/B                
1 21088U 91006B   20360.91314413 -.00000017  00000-0 -32176-4 0  9995
2 21088  82.9419 142.8863 0021654 317.2588 153.0826 13.77147129502563
OKEAN-3                 
1 21397U 91039A   20360.73013678  .00000357  00000-0  31831-4 0  9995
2 21397  82.5212 354.8685 0016272 247.6711 112.2785 14.93014250580805
COSMOS 2151             
1 21422U 91042A   20360.77692449  .00000252  00000-0  22225-4 0  9992
2 21422  82.5012 100.7959 0013036 318.3371  41.6855 14.92193804579417
SL-14 R/B               
1 21423U 91042B   20360.82251580  .00000098  00000-0  99809-5 0  9997
2 21423  82.4931 198.0459 0017488 357.3685   2.7432 14.79810293571962
ERS-1                   
1 21574U 91050A   20360.86650789  .00000048  00000-0  30645-4 0  9998
2 21574  98.6245 314.5281 0034107  78.1938 282.3071 14.37774340542622
ARIANE 40 R/B           
1 21610U 91050F   20360.79420500  .00000025  00000-0  21405-4 0  9996
2 21610  98.4460  67.9209 0004068  59.0320  48.7790 14.40928148545250
INTERCOSMOS 25          
1 21819U 91086A   20361.01722612 -.00000536  00000-0 -11130-3 0  9993
2 21819  82.5914  11.5803 1515421 223.7481 123.3303 12.05202878267371
SL-8 R/B                
1 21876U 92008B   20360.81267044  .00000011  00000-0 -47439-5 0  9991
2 21876  82.9270 240.1794 0035719  41.1117  28.5563 13.75670086448188
SL-8 R/B                
1 21938U 92020B   20360.89420177  .00000068  00000-0  54689-4 0  9995
2 21938  82.9302 124.4494 0029008 197.0133 312.5106 13.75292069439985
COSMOS 2219             
1 22219U 92076A   20360.83568090  .00000324  00000-0  19638-3 0  9999
2 22219  71.0603  27.9147 0019715 226.3533 133.5955 14.13650314449862
SL-16 R/B               
1 22220U 92076B   20361.11191762 -.00000121  00000-0 -36954-4 0  9999
2 22220  70.9992 228.1287 0010673 114.6872  47.9156 14.16465524453149
COSMOS 2221             
1 22236U 92080A   20360.87969244  .00000298  00000-0  29701-4 0  9996
2 22236  82.5085 282.7575 0017930  49.6646 310.6135 14.87991724497748
SL-16 R/B               
1 22285U 92093B   20360.80032360 -.00000247  00000-0 -10285-3 0  9999
2 22285  71.0217  31.0886 0006137 304.9395  55.1151 14.15050520444390
COSMOS 2228             
1 22286U 92094A   20361.13997550  .00000270  00000-0  26429-4 0  9991
2 22286  82.5203 238.9815 0021464 160.5721 199.6320 14.88211254514025
SL-16 R/B               
1 22566U 93016B   20361.12051858 -.00000190  00000-0 -73414-4 0  9997
2 22566  71.0075 243.4213 0011750 323.1813  36.8501 14.14971254433457
COSMOS 2242             
1 22626U 93024A   20361.00196868  .00000265  00000-0  25983-4 0  9990
2 22626  82.5223 267.3132 0019256 160.4722 199.7237 14.88062676497647
SL-16 R/B               
1 22803U 93059B   20360.87306522 -.00000248  00000-0 -99377-4 0  9990
2 22803  70.9911  55.8663 0019062 229.8559 130.0895 14.16828923410415
ARIANE 40 R/B           
1 22830U 93061H   20360.89547611 -.00000010  00000-0  13286-4 0  9992
2 22830  98.7407  51.6173 0011911 119.0632 241.1745 14.31463211422211
COSMOS 2278             
1 23087U 94023A   20360.98622719  .00000308  00000-0  18726-3 0  9991
2 23087  71.0524 187.3142 0007553  39.3787 320.7883 14.13821172376517
SL-16 R/B               
1 23088U 94023B   20360.80861136  .00000119  00000-0  86469-4 0  9991
2 23088  71.0013  99.4796 0005442 291.1927  68.8613 14.14685640377373
SL-16 R/B               
1 23343U 94074B   20361.11540925  .00000053  00000-0  14836-4 0  9992
2 23343  97.9739  52.1425 0005587 249.2455 162.4653 14.76854366406913
SL-16 R/B               
1 23405U 94077B   20360.81989565  .00000030  00000-0  39787-4 0  9994
2 23405  70.9841  28.0939 0003178 217.4407 142.6494 14.15229549347422
ERS-2                   
1 23560U 95021A   20361.10149686  .00001529  00000-0  67729-4 0  9992
2 23560  98.5530 181.0846 0002478 226.6470 133.4557 15.23552691371327
ARIANE 40+ R/B          
1 23561U 95021B   20361.15183338  .00000054  00000-0  33047-4 0  9998
2 23561  98.7010  43.0459 0007684  52.1383  13.6432 14.38000774346349
SL-16 R/B               
1 23705U 95058B   20361.00401288 -.00000232  00000-0 -94857-4 0  9995
2 23705  71.0201 207.0528 0010987 143.8924 216.2943 14.15141825299379
SL-16 R/B               
1 24298U 96051B   20360.93457658 -.00000125  00000-0 -41213-4 0  9999
2 24298  70.8379 226.8626 0013221  67.3992 292.8526 14.12481751253398
ORBVIEW 2 (SEASTAR)     
1 24883U 97037A   20360.92058248  .00000033  00000-0  28122-4 0  9995
2 24883  98.6273 113.4304 0001289 246.2507 113.8542 14.33588092236147
SL-16 R/B               
1 25400U 98043G   20360.84847115 -.00000014  00000-0  12313-4 0  9994
2 25400  98.6260 293.3837 0010703 132.8395 227.3686 14.25467256168282
SL-16 R/B               
1 25407U 98045B   20361.01700542 -.00000112  00000-0 -32637-4 0  9996
2 25407  71.0092 215.0070 0006225  25.9316 334.2118 14.15830131158468
ISS (ZARYA)             
1 25544U 98067A   20361.19935597  .00001473  00000-0  34615-4 0  9998
2 25544  51.6448 118.3917 0001302 159.9949 281.5476 15.49228031261784
SL-8 R/B                
1 25723U 99022C   20360.57406767  .00061350  00000-0  24308-3 0  9999
2 25723  48.4103  27.7305 0000628 272.2810  87.8076 15.86043229207851
CZ-4B R/B               
1 25732U 99025C   20361.08893845 -.00000015  00000-0  14686-4 0  9997
2 25732  98.9252  30.9587 0037739  25.7963  31.2360 14.17686062119118
OKEAN-O                 
1 25860U 99039A   20360.93392771  .00000079  00000-0  18934-4 0  9998
2 25860  98.2009  23.1330 0001214  66.0933 294.0403 14.76701284153773
SL-16 R/B               
1 25861U 99039B   20360.91354304  .00000075  00000-0  17748-4 0  9995
2 25861  98.2092   6.8681 0014320 262.5047 158.1823 14.78611430155913
DELTA 2 R/B             
1 25876U 99041E   20360.78809765 -.00000088  00000-0  25337-4 0  9993
2 25876  51.7651 274.9711 0531209 182.1060 177.7626 14.04491475 95519
